[{"OBJECT_NAME":"STARLINK-31462","OBJECT_ID":"2024-068M","EPOCH":"2026-03-09T07:08:34.580544","MEAN_MOTION":15.27573671,"ECCENTRICITY":0.00010212,"INCLINATION":43.0044,"RA_OF_ASC_NODE":36.6411,"ARG_OF_PERICENTER":282.5463,"MEAN_ANOMALY":77.5275,"EPHEMERIS_TYPE":0,"CLASSIFICATION_TYPE":"U","NORAD_CAT_ID":59466,"ELEMENT_SET_NO":999,"REV_AT_EPOCH":10846,"BSTAR":1.5534729e-5,"MEAN_MOTION_DOT":1.65e-6,"MEAN_MOTION_DDOT":0},{"OBJECT_NAME":"YAOGAN-43 01D","OBJECT_ID":"2024-148D","EPOCH":"2026-03-09T10:27:16.254720","MEAN_MOTION":15.28369377,"ECCENTRICITY":0.00025569,"INCLINATION":35.001,"RA_OF_ASC_NODE":61.7102,"ARG_OF_PERICENTER":326.2473,"MEAN_ANOMALY":33.808,"EPHEMERIS_TYPE":0,"CLASSIFICATION_TYPE":"U","NORAD_CAT_ID":60461,"ELEMENT_SET_NO":999,"REV_AT_EPOCH":8700,"BSTAR":0.00037765912,"MEAN_MOTION_DOT":0.00010676,"MEAN_MOTION_DDOT":0}]
