STARLINK-31462          
1 59466U 24068M   26068.29762246  .00000165  00000+0  15535-4 0  9994
2 59466  43.0044  36.6411 0001021 282.5463  77.5275 15.27573671108468
YAOGAN-43 01D           
1 60461U 24148D   26068.43560480  .00010676  00000+0  37766-3 0  9999
2 60461  35.0010  61.7102 0002556 326.2473  33.8080 15.28369377 87008
